     2.100          NAVIGATION                              RINEX VERSION / TYPE
fic2rin                                 07/31/2016 00:12:42 PGM / RUN BY / DATE
                                                            END OF HEADER
16 16  7 31  0  0  0.0 -.166846439242D-05  .216004991671D-11  .000000000000D+00
     .200000000000D+02  .544062500000D+02  .396730811145D-08  .985878737670D+00
     .291131436825D-05  .867761613335D-02  .183470547199D-05  .515353783798D+04
     .000000000000D+00 -.134110450745D-06  .844652835112D+00  .134110450745D-06
     .990686231727D+00  .359187500000D+03  .388572826166D+00 -.819855578847D-08
     .128576784311D-09  .100000000000D+01  .190800000000D+04  .000000000000D+00
     .240000000000D+01  .000000000000D+00 -.107102096081D-07  .200000000000D+02
     .597606000000D+06  .400000000000D+01
17 16  7 31  0  0  0.0 -.203666742891D-03  .227373675443D-12  .000000000000D+00
     .800000000000D+02 -.111687500000D+03  .421553273672D-08  .128972990803D+00
    -.603869557381D-05  .110401858110D-01  .545568764210D-05  .515372833061D+04
     .000000000000D+00 -.186264514923D-06  .186587836535D+01  .894069671631D-07
     .976896466013D+00  .286218750000D+03 -.192556669572D+01 -.822034241026D-08
    -.149649090628D-09  .100000000000D+01  .190800000000D+04  .000000000000D+00
     .240000000000D+01  .000000000000D+00 -.107102096081D-07  .800000000000D+02
     .597606000000D+06  .400000000000D+01
18 16  7 31  0  0  0.0  .542160123587D-03  .409272615798D-11  .000000000000D+00
     .960000000000D+02  .132500000000D+02  .585702968308D-08  .168849383847D+01
     .357627868652D-06  .172720897244D-01  .601634383202D-05  .515369419670D+04
     .000000000000D+00 -.195577740669D-06 -.240392757753D+01 -.430271029472D-06
     .925023174220D+00  .247250000000D+03 -.186702873976D+01 -.860535844772D-08
     .313584490624D-09  .100000000000D+01  .190800000000D+04  .000000000000D+00
     .240000000000D+01  .000000000000D+00 -.111758708954D-07  .960000000000D+02
     .597606000000D+06  .400000000000D+01
19 16  7 31  0  0  0.0 -.524590257555D-03  .227373675443D-12  .000000000000D+00
     .930000000000D+02 -.122687500000D+03  .414017245480D-08 -.303937326870D+01
    -.645965337753D-05  .107135776198D-01  .588409602642D-05  .515363378525D+04
     .000000000000D+00 -.186264514923D-07  .191450870277D+01 -.189989805222D-06
     .974054785680D+00  .274531250000D+03  .830755998425D+00 -.787782814316D-08
    -.119647840956D-09  .100000000000D+01  .190800000000D+04  .000000000000D+00
     .340000000000D+01  .000000000000D+00 -.149011611938D-07  .930000000000D+02
     .597606000000D+06  .400000000000D+01
20 16  7 31  0  0  0.0  .427290797234D-03  .216004991671D-11  .000000000000D+00
     .950000000000D+02  .214062500000D+02  .584524347785D-08 -.711691757001D+00
     .120326876640D-05  .459509412758D-02  .586546957493D-05  .515376518059D+04
     .000000000000D+00 -.894069671631D-07 -.245564024092D+01 -.745058059692D-08
     .926353503645D+00  .248093750000D+03  .140575821700D+01 -.871322008345D-08
     .299298181256D-09  .100000000000D+01  .190800000000D+04  .000000000000D+00
     .240000000000D+01  .000000000000D+00 -.838190317154D-08  .950000000000D+02
     .597606000000D+06  .400000000000D+01
21 16  7 31  0  0  0.0 -.529499258846D-03 -.795807864051D-12  .000000000000D+00
     .140000000000D+02 -.553437500000D+02  .475662670402D-08  .261912211601D+01
    -.292621552944D-05  .233465231722D-01  .117588788271D-04  .515358164406D+04
     .000000000000D+00  .193715095520D-06  .283794014458D+01 -.184401869774D-06
     .937363670879D+00  .137750000000D+03 -.177190132132D+01 -.762424615188D-08
     .404302555110D-09  .100000000000D+01  .190800000000D+04  .000000000000D+00
     .240000000000D+01  .000000000000D+00 -.977888703346D-08  .140000000000D+02
     .597606000000D+06  .400000000000D+01
22 16  7 31  0  0  0.0  .283821485937D-03 -.943600753089D-11  .000000000000D+00
     .420000000000D+02  .217500000000D+02  .595667669092D-08 -.356406339972D+00
     .116601586342D-05  .760282017291D-02  .615045428276D-05  .515375618744D+04
     .000000000000D+00 -.931322574615D-07 -.240341169117D+01  .372529029846D-08
     .922946284052D+00  .239968750000D+03 -.188229079939D+01 -.881608151090D-08
     .337156901081D-09  .100000000000D+01  .190800000000D+04  .000000000000D+00
     .240000000000D+01  .000000000000D+00 -.176951289177D-07  .420000000000D+02
     .597606000000D+06  .400000000000D+01
23 16  7 31  0  0  0.0 -.184248201549D-03 -.147792889038D-11  .000000000000D+00
     .800000000000D+02 -.215625000000D+02  .504771025739D-08 -.117496635903D+01
    -.121444463730D-05  .111460387707D-01  .802241265774D-05  .515363393211D+04
     .000000000000D+00  .251457095146D-06 -.132476763428D+01 -.689178705215D-07
     .945270520734D+00  .214718750000D+03 -.254499224457D+01 -.817712632442D-08
    -.663241912402D-09  .100000000000D+01  .190800000000D+04  .000000000000D+00
     .240000000000D+01  .000000000000D+00 -.200234353542D-07  .800000000000D+02
     .597606000000D+06  .400000000000D+01
24 16  7 31  0  0  0.0 -.209286808968D-04 -.568434188608D-12  .000000000000D+00
     .260000000000D+02  .101000000000D+03  .436696761602D-08 -.170360098971D+01
     .533275306225D-05  .449840165675D-02  .102650374174D-04  .515374271202D+04
     .000000000000D+00 -.614672899246D-07 -.299506283182D+00 -.115483999252D-06
     .949036238643D+00  .178718750000D+03  .411953753447D+00 -.784246952748D-08
    -.142863093678D-09  .100000000000D+01  .190800000000D+04  .000000000000D+00
     .240000000000D+01  .000000000000D+00  .232830643654D-08  .260000000000D+02
     .597606000000D+06  .400000000000D+01
25 16  7 31  0  0  0.0 -.218173023313D-03 -.693489710102D-11  .000000000000D+00
     .470000000000D+02  .603125000000D+02  .417981696330D-08  .246617968061D+01
     .311248004436D-05  .559569941834D-02  .181980431080D-05  .515371888351D+04
     .000000000000D+00  .260770320892D-07  .774170517298D+00 -.145286321640D-06
     .978403564219D+00  .353250000000D+03  .796026982999D+00 -.819855578847D-08
     .256796410887D-09  .100000000000D+01  .190800000000D+04  .000000000000D+00
     .240000000000D+01  .000000000000D+00  .558793544769D-08  .470000000000D+02
     .597606000000D+06  .400000000000D+01
26 16  7 31  0  0  0.0 -.436624977738D-03 -.932232069317D-11  .000000000000D+00
     .120000000000D+03  .691562500000D+02  .466769442821D-08  .179184663084D+01
     .356882810593D-05  .905370805413D-03  .148266553879D-05  .515355268669D+04
     .000000000000D+00 -.651925802231D-07  .764070052505D+00 -.633299350739D-07
     .960348372650D+00  .351031250000D+03  .722512169132D-01 -.847856745208D-08
     .206437170365D-09  .100000000000D+01  .190800000000D+04  .000000000000D+00
     .240000000000D+01  .000000000000D+00  .698491930962D-08  .120000000000D+03
     .597606000000D+06  .400000000000D+01
27 16  7 31  0  0  0.0  .120908487588D-03  .454747350886D-11  .000000000000D+00
     .750000000000D+02 -.128750000000D+03  .433053752713D-08  .114047469621D+00
    -.657700002193D-05  .378947472200D-02  .516138970852D-05  .515364926338D+04
     .000000000000D+00  .104308128357D-06  .181558307355D+01  .391155481339D-07
     .971816127494D+00  .287437500000D+03  .339733484566D+00 -.822319967213D-08
    -.182150444440D-09  .100000000000D+01  .190800000000D+04  .000000000000D+00
     .240000000000D+01  .000000000000D+00  .186264514923D-08  .750000000000D+02
     .597606000000D+06  .400000000000D+01
28 16  7 31  0  0  0.0  .541017390788D-03  .272848410532D-11  .000000000000D+00
     .850000000000D+02  .582187500000D+02  .412838624957D-08  .957843821788D+00
     .279769301414D-05  .197728154017D-01  .237673521042D-05  .515362697983D+04
     .000000000000D+00 -.273808836937D-06  .849526897794D+00 -.143423676491D-06
     .989404618937D+00  .350437500000D+03 -.161344458592D+01 -.845285209522D-08
     .139291516336D-09  .100000000000D+01  .190800000000D+04  .000000000000D+00
     .240000000000D+01  .000000000000D+00 -.107102096081D-07  .850000000000D+02
     .597606000000D+06  .400000000000D+01
29 16  7 31  0  0  0.0  .654604285955D-03 -.682121026330D-12  .000000000000D+00
     .910000000000D+02 -.116875000000D+03  .410588531232D-08  .219827211049D+01
    -.618770718575D-05  .702684861608D-03  .591389834881D-05  .515377667618D+04
     .000000000000D+00 -.186264514923D-08  .187566994084D+01  .558793544769D-07
     .977897726646D+00  .270281250000D+03  .530415533022D-01 -.801711965950D-08
    -.159292349451D-09  .100000000000D+01  .190800000000D+04  .000000000000D+00
     .340000000000D+01  .000000000000D+00 -.102445483208D-07  .910000000000D+02
     .597606000000D+06  .400000000000D+01
30 16  7 31  0  0  0.0  .142802484334D-03  .216004991671D-11  .000000000000D+00
     .560000000000D+02  .998750000000D+02  .439018286874D-08 -.259769466859D+01
     .518001616001D-05  .234464684036D-02  .106748193502D-04  .515358337593D+04
     .000000000000D+00 -.186264514923D-07 -.208057721891D+00  .186264514923D-08
     .951779284650D+00  .168812500000D+03  .311302308504D+01 -.792997317236D-08
    -.578595529398D-10  .100000000000D+01  .190800000000D+04  .000000000000D+00
     .240000000000D+01  .000000000000D+00  .372529029846D-08  .560000000000D+02
     .597606000000D+06  .400000000000D+01
31 16  7 31  0  0  0.0  .256084371358D-03 -.193267624127D-11  .000000000000D+00
     .910000000000D+02  .123687500000D+03  .392944939163D-08 -.284503008635D+01
     .628456473351D-05  .815848924685D-02  .109169632196D-04  .515379959869D+04
     .000000000000D+00 -.298023223877D-07 -.241629991899D+00  .875443220139D-07
     .970801779597D+00  .175718750000D+03 -.393840440144D+00 -.767460539241D-08
    -.104647216119D-09  .100000000000D+01  .190800000000D+04  .000000000000D+00
     .240000000000D+01  .000000000000D+00 -.135041773319D-07  .910000000000D+02
     .597606000000D+06  .400000000000D+01
